<?xml version="1.0" encoding="UTF-8"?>
<gpx version="1.1" creator="MapDraw.net" xmlns="http://www.topografix.com/GPX/1/1"
    xmlns:gpx_style="http://www.topografix.com/GPX/gpx_style/0/2"
    xmlns:app="https://www.mapdraw.net">
  <trk>
    <name>Route: 47.329050, 7.693863 to 47.260126, 7.500229</name>
    <extensions>
      <gpx_style:line>
        <gpx_style:color>FFD700</gpx_style:color>
      </gpx_style:line>
    </extensions>
    <trkseg>
      <trkpt lat="47.32873" lon="7.69399"></trkpt>
      <trkpt lat="47.32855" lon="7.69297"></trkpt>
      <trkpt lat="47.32846" lon="7.69248"></trkpt>
      <trkpt lat="47.32839" lon="7.69224"></trkpt>
      <trkpt lat="47.32837" lon="7.69213"></trkpt>
      <trkpt lat="47.32835" lon="7.69201"></trkpt>
      <trkpt lat="47.32835" lon="7.69186"></trkpt>
      <trkpt lat="47.32849" lon="7.69179"></trkpt>
      <trkpt lat="47.32855" lon="7.69174"></trkpt>
      <trkpt lat="47.32887" lon="7.69129"></trkpt>
      <trkpt lat="47.32924" lon="7.69075"></trkpt>
      <trkpt lat="47.32948" lon="7.69034"></trkpt>
      <trkpt lat="47.32967" lon="7.69005"></trkpt>
      <trkpt lat="47.32982" lon="7.68983"></trkpt>
      <trkpt lat="47.32997" lon="7.68962"></trkpt>
      <trkpt lat="47.33004" lon="7.68953"></trkpt>
      <trkpt lat="47.33014" lon="7.68941"></trkpt>
      <trkpt lat="47.33021" lon="7.68932"></trkpt>
      <trkpt lat="47.33031" lon="7.68916"></trkpt>
      <trkpt lat="47.33039" lon="7.68897"></trkpt>
      <trkpt lat="47.33043" lon="7.6889"></trkpt>
      <trkpt lat="47.33047" lon="7.68884"></trkpt>
      <trkpt lat="47.33047" lon="7.68879"></trkpt>
      <trkpt lat="47.33047" lon="7.68873"></trkpt>
      <trkpt lat="47.33046" lon="7.68863"></trkpt>
      <trkpt lat="47.33043" lon="7.68851"></trkpt>
      <trkpt lat="47.33039" lon="7.68832"></trkpt>
      <trkpt lat="47.33038" lon="7.68819"></trkpt>
      <trkpt lat="47.33037" lon="7.68809"></trkpt>
      <trkpt lat="47.33038" lon="7.68798"></trkpt>
      <trkpt lat="47.33039" lon="7.68786"></trkpt>
      <trkpt lat="47.33041" lon="7.68775"></trkpt>
      <trkpt lat="47.33042" lon="7.68767"></trkpt>
      <trkpt lat="47.33045" lon="7.68758"></trkpt>
      <trkpt lat="47.33047" lon="7.68752"></trkpt>
      <trkpt lat="47.3305" lon="7.68744"></trkpt>
      <trkpt lat="47.3306" lon="7.68725"></trkpt>
      <trkpt lat="47.33063" lon="7.68719"></trkpt>
      <trkpt lat="47.33064" lon="7.68715"></trkpt>
      <trkpt lat="47.33065" lon="7.68709"></trkpt>
      <trkpt lat="47.33071" lon="7.68704"></trkpt>
      <trkpt lat="47.33072" lon="7.68696"></trkpt>
      <trkpt lat="47.33072" lon="7.6868"></trkpt>
      <trkpt lat="47.33068" lon="7.68645"></trkpt>
      <trkpt lat="47.33064" lon="7.68636"></trkpt>
      <trkpt lat="47.33059" lon="7.68624"></trkpt>
      <trkpt lat="47.33059" lon="7.68616"></trkpt>
      <trkpt lat="47.33063" lon="7.68568"></trkpt>
      <trkpt lat="47.33064" lon="7.68559"></trkpt>
      <trkpt lat="47.33067" lon="7.68551"></trkpt>
      <trkpt lat="47.3307" lon="7.68546"></trkpt>
      <trkpt lat="47.33076" lon="7.68544"></trkpt>
      <trkpt lat="47.33084" lon="7.68542"></trkpt>
      <trkpt lat="47.33094" lon="7.68547"></trkpt>
      <trkpt lat="47.33113" lon="7.68562"></trkpt>
      <trkpt lat="47.3312" lon="7.68562"></trkpt>
      <trkpt lat="47.33123" lon="7.68558"></trkpt>
      <trkpt lat="47.33124" lon="7.68549"></trkpt>
      <trkpt lat="47.33112" lon="7.6849"></trkpt>
      <trkpt lat="47.33106" lon="7.6847"></trkpt>
      <trkpt lat="47.33099" lon="7.68456"></trkpt>
      <trkpt lat="47.33083" lon="7.68428"></trkpt>
      <trkpt lat="47.3308" lon="7.68419"></trkpt>
      <trkpt lat="47.33078" lon="7.68411"></trkpt>
      <trkpt lat="47.33029" lon="7.68374"></trkpt>
      <trkpt lat="47.32956" lon="7.68369"></trkpt>
      <trkpt lat="47.32821" lon="7.6836"></trkpt>
      <trkpt lat="47.32775" lon="7.68383"></trkpt>
      <trkpt lat="47.32757" lon="7.68392"></trkpt>
      <trkpt lat="47.32753" lon="7.68394"></trkpt>
      <trkpt lat="47.3274" lon="7.68399"></trkpt>
      <trkpt lat="47.32728" lon="7.68409"></trkpt>
      <trkpt lat="47.32714" lon="7.68432"></trkpt>
      <trkpt lat="47.32705" lon="7.68451"></trkpt>
      <trkpt lat="47.32699" lon="7.68455"></trkpt>
      <trkpt lat="47.32693" lon="7.68456"></trkpt>
      <trkpt lat="47.32686" lon="7.68449"></trkpt>
      <trkpt lat="47.32683" lon="7.6844"></trkpt>
      <trkpt lat="47.32679" lon="7.68422"></trkpt>
      <trkpt lat="47.32678" lon="7.68397"></trkpt>
      <trkpt lat="47.32672" lon="7.68361"></trkpt>
      <trkpt lat="47.32671" lon="7.68343"></trkpt>
      <trkpt lat="47.32673" lon="7.68324"></trkpt>
      <trkpt lat="47.32676" lon="7.68308"></trkpt>
      <trkpt lat="47.3268" lon="7.68295"></trkpt>
      <trkpt lat="47.32687" lon="7.68286"></trkpt>
      <trkpt lat="47.32692" lon="7.68279"></trkpt>
      <trkpt lat="47.32693" lon="7.68272"></trkpt>
      <trkpt lat="47.32692" lon="7.68263"></trkpt>
      <trkpt lat="47.3269" lon="7.68257"></trkpt>
      <trkpt lat="47.32685" lon="7.6825"></trkpt>
      <trkpt lat="47.32663" lon="7.68231"></trkpt>
      <trkpt lat="47.32647" lon="7.68212"></trkpt>
      <trkpt lat="47.32641" lon="7.68202"></trkpt>
      <trkpt lat="47.32639" lon="7.68192"></trkpt>
      <trkpt lat="47.32635" lon="7.68156"></trkpt>
      <trkpt lat="47.32632" lon="7.68117"></trkpt>
      <trkpt lat="47.32625" lon="7.6807"></trkpt>
      <trkpt lat="47.3262" lon="7.68018"></trkpt>
      <trkpt lat="47.32621" lon="7.67992"></trkpt>
      <trkpt lat="47.32625" lon="7.67971"></trkpt>
      <trkpt lat="47.32631" lon="7.67959"></trkpt>
      <trkpt lat="47.32634" lon="7.67953"></trkpt>
      <trkpt lat="47.32634" lon="7.67948"></trkpt>
      <trkpt lat="47.32631" lon="7.67943"></trkpt>
      <trkpt lat="47.32623" lon="7.67937"></trkpt>
      <trkpt lat="47.3261" lon="7.67934"></trkpt>
      <trkpt lat="47.32613" lon="7.67902"></trkpt>
      <trkpt lat="47.32613" lon="7.67888"></trkpt>
      <trkpt lat="47.32612" lon="7.67885"></trkpt>
      <trkpt lat="47.32611" lon="7.67882"></trkpt>
      <trkpt lat="47.32609" lon="7.6788"></trkpt>
      <trkpt lat="47.32607" lon="7.67878"></trkpt>
      <trkpt lat="47.32604" lon="7.67878"></trkpt>
      <trkpt lat="47.326" lon="7.67879"></trkpt>
      <trkpt lat="47.32597" lon="7.6788"></trkpt>
      <trkpt lat="47.32588" lon="7.67887"></trkpt>
      <trkpt lat="47.32585" lon="7.67888"></trkpt>
      <trkpt lat="47.3258" lon="7.6789"></trkpt>
      <trkpt lat="47.32575" lon="7.67892"></trkpt>
      <trkpt lat="47.32571" lon="7.67894"></trkpt>
      <trkpt lat="47.32567" lon="7.67896"></trkpt>
      <trkpt lat="47.32564" lon="7.67899"></trkpt>
      <trkpt lat="47.32562" lon="7.67903"></trkpt>
      <trkpt lat="47.3256" lon="7.67907"></trkpt>
      <trkpt lat="47.32545" lon="7.67953"></trkpt>
      <trkpt lat="47.32541" lon="7.67963"></trkpt>
      <trkpt lat="47.32538" lon="7.67969"></trkpt>
      <trkpt lat="47.32535" lon="7.6797"></trkpt>
      <trkpt lat="47.32532" lon="7.67971"></trkpt>
      <trkpt lat="47.32529" lon="7.67969"></trkpt>
      <trkpt lat="47.32526" lon="7.67965"></trkpt>
      <trkpt lat="47.32523" lon="7.67958"></trkpt>
      <trkpt lat="47.3252" lon="7.67952"></trkpt>
      <trkpt lat="47.32517" lon="7.67949"></trkpt>
      <trkpt lat="47.32513" lon="7.67945"></trkpt>
      <trkpt lat="47.32506" lon="7.67941"></trkpt>
      <trkpt lat="47.32496" lon="7.67938"></trkpt>
      <trkpt lat="47.32483" lon="7.67937"></trkpt>
      <trkpt lat="47.3247" lon="7.67939"></trkpt>
      <trkpt lat="47.32458" lon="7.67944"></trkpt>
      <trkpt lat="47.32441" lon="7.67955"></trkpt>
      <trkpt lat="47.32431" lon="7.67961"></trkpt>
      <trkpt lat="47.32419" lon="7.67971"></trkpt>
      <trkpt lat="47.32412" lon="7.67979"></trkpt>
      <trkpt lat="47.32409" lon="7.6798"></trkpt>
      <trkpt lat="47.32406" lon="7.6798"></trkpt>
      <trkpt lat="47.32402" lon="7.67978"></trkpt>
      <trkpt lat="47.32397" lon="7.67973"></trkpt>
      <trkpt lat="47.32393" lon="7.67964"></trkpt>
      <trkpt lat="47.3239" lon="7.67955"></trkpt>
      <trkpt lat="47.3239" lon="7.67944"></trkpt>
      <trkpt lat="47.32389" lon="7.67933"></trkpt>
      <trkpt lat="47.32387" lon="7.67925"></trkpt>
      <trkpt lat="47.32383" lon="7.67917"></trkpt>
      <trkpt lat="47.32379" lon="7.6791"></trkpt>
      <trkpt lat="47.3236" lon="7.67887"></trkpt>
      <trkpt lat="47.32347" lon="7.6787"></trkpt>
      <trkpt lat="47.32322" lon="7.67837"></trkpt>
      <trkpt lat="47.3228" lon="7.6779"></trkpt>
      <trkpt lat="47.32275" lon="7.67784"></trkpt>
      <trkpt lat="47.32261" lon="7.67761"></trkpt>
      <trkpt lat="47.32254" lon="7.67753"></trkpt>
      <trkpt lat="47.32242" lon="7.67743"></trkpt>
      <trkpt lat="47.32232" lon="7.67735"></trkpt>
      <trkpt lat="47.32194" lon="7.67703"></trkpt>
      <trkpt lat="47.32184" lon="7.67697"></trkpt>
      <trkpt lat="47.32168" lon="7.67693"></trkpt>
      <trkpt lat="47.32147" lon="7.67691"></trkpt>
      <trkpt lat="47.32129" lon="7.67693"></trkpt>
      <trkpt lat="47.32124" lon="7.6769"></trkpt>
      <trkpt lat="47.3212" lon="7.67682"></trkpt>
      <trkpt lat="47.32116" lon="7.67672"></trkpt>
      <trkpt lat="47.32108" lon="7.67634"></trkpt>
      <trkpt lat="47.32101" lon="7.67596"></trkpt>
      <trkpt lat="47.32091" lon="7.67507"></trkpt>
      <trkpt lat="47.32088" lon="7.67479"></trkpt>
      <trkpt lat="47.32087" lon="7.67452"></trkpt>
      <trkpt lat="47.32087" lon="7.67436"></trkpt>
      <trkpt lat="47.32086" lon="7.67434"></trkpt>
      <trkpt lat="47.32085" lon="7.67431"></trkpt>
      <trkpt lat="47.3208" lon="7.67423"></trkpt>
      <trkpt lat="47.32076" lon="7.67417"></trkpt>
      <trkpt lat="47.32071" lon="7.67411"></trkpt>
      <trkpt lat="47.32062" lon="7.67402"></trkpt>
      <trkpt lat="47.32061" lon="7.67405"></trkpt>
      <trkpt lat="47.32059" lon="7.67408"></trkpt>
      <trkpt lat="47.32055" lon="7.67411"></trkpt>
      <trkpt lat="47.32051" lon="7.67413"></trkpt>
      <trkpt lat="47.32046" lon="7.67416"></trkpt>
      <trkpt lat="47.32025" lon="7.67424"></trkpt>
      <trkpt lat="47.3202" lon="7.67426"></trkpt>
      <trkpt lat="47.32019" lon="7.67426"></trkpt>
      <trkpt lat="47.32015" lon="7.67428"></trkpt>
      <trkpt lat="47.32004" lon="7.67434"></trkpt>
      <trkpt lat="47.31986" lon="7.67361"></trkpt>
      <trkpt lat="47.31984" lon="7.67357"></trkpt>
      <trkpt lat="47.31981" lon="7.67353"></trkpt>
      <trkpt lat="47.31978" lon="7.67348"></trkpt>
      <trkpt lat="47.31972" lon="7.67341"></trkpt>
      <trkpt lat="47.31965" lon="7.67335"></trkpt>
      <trkpt lat="47.31959" lon="7.67331"></trkpt>
      <trkpt lat="47.31949" lon="7.67326"></trkpt>
      <trkpt lat="47.31936" lon="7.67321"></trkpt>
      <trkpt lat="47.3193" lon="7.67319"></trkpt>
      <trkpt lat="47.31922" lon="7.67319"></trkpt>
      <trkpt lat="47.31882" lon="7.67326"></trkpt>
      <trkpt lat="47.31837" lon="7.67336"></trkpt>
      <trkpt lat="47.31787" lon="7.67347"></trkpt>
      <trkpt lat="47.31784" lon="7.67347"></trkpt>
      <trkpt lat="47.31782" lon="7.67346"></trkpt>
      <trkpt lat="47.31779" lon="7.67345"></trkpt>
      <trkpt lat="47.31777" lon="7.67343"></trkpt>
      <trkpt lat="47.31775" lon="7.67342"></trkpt>
      <trkpt lat="47.31773" lon="7.67339"></trkpt>
      <trkpt lat="47.31771" lon="7.67337"></trkpt>
      <trkpt lat="47.31738" lon="7.67279"></trkpt>
      <trkpt lat="47.31732" lon="7.67268"></trkpt>
      <trkpt lat="47.31717" lon="7.6723"></trkpt>
      <trkpt lat="47.31711" lon="7.67214"></trkpt>
      <trkpt lat="47.31708" lon="7.672"></trkpt>
      <trkpt lat="47.31707" lon="7.6719"></trkpt>
      <trkpt lat="47.31707" lon="7.67177"></trkpt>
      <trkpt lat="47.31709" lon="7.67168"></trkpt>
      <trkpt lat="47.3171" lon="7.67161"></trkpt>
      <trkpt lat="47.31713" lon="7.67155"></trkpt>
      <trkpt lat="47.31716" lon="7.67147"></trkpt>
      <trkpt lat="47.31734" lon="7.67116"></trkpt>
      <trkpt lat="47.31756" lon="7.67076"></trkpt>
      <trkpt lat="47.31759" lon="7.67066"></trkpt>
      <trkpt lat="47.31761" lon="7.67059"></trkpt>
      <trkpt lat="47.31762" lon="7.67051"></trkpt>
      <trkpt lat="47.31761" lon="7.67044"></trkpt>
      <trkpt lat="47.3176" lon="7.67038"></trkpt>
      <trkpt lat="47.31757" lon="7.67033"></trkpt>
      <trkpt lat="47.31751" lon="7.67028"></trkpt>
      <trkpt lat="47.31737" lon="7.67018"></trkpt>
      <trkpt lat="47.31724" lon="7.67014"></trkpt>
      <trkpt lat="47.31715" lon="7.67012"></trkpt>
      <trkpt lat="47.31704" lon="7.6701"></trkpt>
      <trkpt lat="47.31695" lon="7.6701"></trkpt>
      <trkpt lat="47.31687" lon="7.67012"></trkpt>
      <trkpt lat="47.31679" lon="7.67015"></trkpt>
      <trkpt lat="47.31674" lon="7.67015"></trkpt>
      <trkpt lat="47.31669" lon="7.67015"></trkpt>
      <trkpt lat="47.31663" lon="7.67014"></trkpt>
      <trkpt lat="47.31657" lon="7.67012"></trkpt>
      <trkpt lat="47.31653" lon="7.6701"></trkpt>
      <trkpt lat="47.3165" lon="7.67006"></trkpt>
      <trkpt lat="47.31646" lon="7.67"></trkpt>
      <trkpt lat="47.31643" lon="7.66991"></trkpt>
      <trkpt lat="47.31638" lon="7.66978"></trkpt>
      <trkpt lat="47.31634" lon="7.66964"></trkpt>
      <trkpt lat="47.31631" lon="7.66948"></trkpt>
      <trkpt lat="47.31627" lon="7.66931"></trkpt>
      <trkpt lat="47.31623" lon="7.6689"></trkpt>
      <trkpt lat="47.31621" lon="7.66866"></trkpt>
      <trkpt lat="47.3162" lon="7.66763"></trkpt>
      <trkpt lat="47.31618" lon="7.66737"></trkpt>
      <trkpt lat="47.31617" lon="7.66712"></trkpt>
      <trkpt lat="47.31618" lon="7.66684"></trkpt>
      <trkpt lat="47.31619" lon="7.66657"></trkpt>
      <trkpt lat="47.3162" lon="7.66639"></trkpt>
      <trkpt lat="47.3162" lon="7.66623"></trkpt>
      <trkpt lat="47.31617" lon="7.66592"></trkpt>
      <trkpt lat="47.31616" lon="7.6658"></trkpt>
      <trkpt lat="47.31617" lon="7.6657"></trkpt>
      <trkpt lat="47.31618" lon="7.6656"></trkpt>
      <trkpt lat="47.3162" lon="7.66547"></trkpt>
      <trkpt lat="47.31622" lon="7.66538"></trkpt>
      <trkpt lat="47.31623" lon="7.66529"></trkpt>
      <trkpt lat="47.31623" lon="7.6652"></trkpt>
      <trkpt lat="47.31622" lon="7.66512"></trkpt>
      <trkpt lat="47.3162" lon="7.66495"></trkpt>
      <trkpt lat="47.31615" lon="7.66466"></trkpt>
      <trkpt lat="47.31609" lon="7.66446"></trkpt>
      <trkpt lat="47.31594" lon="7.664"></trkpt>
      <trkpt lat="47.31586" lon="7.6638"></trkpt>
      <trkpt lat="47.31574" lon="7.66357"></trkpt>
      <trkpt lat="47.31573" lon="7.66352"></trkpt>
      <trkpt lat="47.31572" lon="7.66346"></trkpt>
      <trkpt lat="47.31572" lon="7.66333"></trkpt>
      <trkpt lat="47.31573" lon="7.66318"></trkpt>
      <trkpt lat="47.31583" lon="7.66249"></trkpt>
      <trkpt lat="47.31592" lon="7.66215"></trkpt>
      <trkpt lat="47.31593" lon="7.6621"></trkpt>
      <trkpt lat="47.31593" lon="7.66204"></trkpt>
      <trkpt lat="47.31591" lon="7.66198"></trkpt>
      <trkpt lat="47.31575" lon="7.66161"></trkpt>
      <trkpt lat="47.31564" lon="7.66144"></trkpt>
      <trkpt lat="47.31545" lon="7.66126"></trkpt>
      <trkpt lat="47.31514" lon="7.66107"></trkpt>
      <trkpt lat="47.31505" lon="7.66073"></trkpt>
      <trkpt lat="47.31481" lon="7.66046"></trkpt>
      <trkpt lat="47.31451" lon="7.65992"></trkpt>
      <trkpt lat="47.31412" lon="7.65952"></trkpt>
      <trkpt lat="47.31381" lon="7.65924"></trkpt>
      <trkpt lat="47.31371" lon="7.65918"></trkpt>
      <trkpt lat="47.31364" lon="7.6591"></trkpt>
      <trkpt lat="47.31359" lon="7.65906"></trkpt>
      <trkpt lat="47.31353" lon="7.65901"></trkpt>
      <trkpt lat="47.31336" lon="7.65887"></trkpt>
      <trkpt lat="47.31319" lon="7.65863"></trkpt>
      <trkpt lat="47.31316" lon="7.6586"></trkpt>
      <trkpt lat="47.31313" lon="7.65847"></trkpt>
      <trkpt lat="47.31313" lon="7.65844"></trkpt>
      <trkpt lat="47.31308" lon="7.65821"></trkpt>
      <trkpt lat="47.313" lon="7.65754"></trkpt>
      <trkpt lat="47.31296" lon="7.65702"></trkpt>
      <trkpt lat="47.31296" lon="7.65646"></trkpt>
      <trkpt lat="47.31299" lon="7.65617"></trkpt>
      <trkpt lat="47.31301" lon="7.65605"></trkpt>
      <trkpt lat="47.31309" lon="7.65561"></trkpt>
      <trkpt lat="47.31309" lon="7.65551"></trkpt>
      <trkpt lat="47.31307" lon="7.65542"></trkpt>
      <trkpt lat="47.31303" lon="7.65517"></trkpt>
      <trkpt lat="47.31299" lon="7.65482"></trkpt>
      <trkpt lat="47.31298" lon="7.65466"></trkpt>
      <trkpt lat="47.31295" lon="7.65404"></trkpt>
      <trkpt lat="47.31295" lon="7.65398"></trkpt>
      <trkpt lat="47.31295" lon="7.65374"></trkpt>
      <trkpt lat="47.31295" lon="7.65349"></trkpt>
      <trkpt lat="47.31293" lon="7.65317"></trkpt>
      <trkpt lat="47.31289" lon="7.65269"></trkpt>
      <trkpt lat="47.31283" lon="7.65192"></trkpt>
      <trkpt lat="47.31277" lon="7.65192"></trkpt>
      <trkpt lat="47.31261" lon="7.65188"></trkpt>
      <trkpt lat="47.31243" lon="7.65183"></trkpt>
      <trkpt lat="47.31226" lon="7.65183"></trkpt>
      <trkpt lat="47.31214" lon="7.65187"></trkpt>
      <trkpt lat="47.31201" lon="7.65198"></trkpt>
      <trkpt lat="47.31197" lon="7.65201"></trkpt>
      <trkpt lat="47.31193" lon="7.65202"></trkpt>
      <trkpt lat="47.31192" lon="7.65203"></trkpt>
      <trkpt lat="47.31186" lon="7.65204"></trkpt>
      <trkpt lat="47.31183" lon="7.65191"></trkpt>
      <trkpt lat="47.3118" lon="7.6518"></trkpt>
      <trkpt lat="47.31159" lon="7.65107"></trkpt>
      <trkpt lat="47.31146" lon="7.65064"></trkpt>
      <trkpt lat="47.3114" lon="7.65042"></trkpt>
      <trkpt lat="47.31135" lon="7.65019"></trkpt>
      <trkpt lat="47.3113" lon="7.64995"></trkpt>
      <trkpt lat="47.31125" lon="7.64964"></trkpt>
      <trkpt lat="47.31124" lon="7.64958"></trkpt>
      <trkpt lat="47.31121" lon="7.6494"></trkpt>
      <trkpt lat="47.31113" lon="7.64889"></trkpt>
      <trkpt lat="47.31108" lon="7.64854"></trkpt>
      <trkpt lat="47.31106" lon="7.64838"></trkpt>
      <trkpt lat="47.31098" lon="7.648"></trkpt>
      <trkpt lat="47.31096" lon="7.64788"></trkpt>
      <trkpt lat="47.31094" lon="7.64782"></trkpt>
      <trkpt lat="47.31088" lon="7.64768"></trkpt>
      <trkpt lat="47.31089" lon="7.64753"></trkpt>
      <trkpt lat="47.31088" lon="7.64745"></trkpt>
      <trkpt lat="47.31082" lon="7.64725"></trkpt>
      <trkpt lat="47.31075" lon="7.64725"></trkpt>
      <trkpt lat="47.3107" lon="7.64721"></trkpt>
      <trkpt lat="47.3104" lon="7.64683"></trkpt>
      <trkpt lat="47.31005" lon="7.64638"></trkpt>
      <trkpt lat="47.30956" lon="7.64568"></trkpt>
      <trkpt lat="47.30917" lon="7.64509"></trkpt>
      <trkpt lat="47.30875" lon="7.64431"></trkpt>
      <trkpt lat="47.3084" lon="7.64358"></trkpt>
      <trkpt lat="47.30819" lon="7.6431"></trkpt>
      <trkpt lat="47.30779" lon="7.64201"></trkpt>
      <trkpt lat="47.30751" lon="7.64115"></trkpt>
      <trkpt lat="47.30726" lon="7.6402"></trkpt>
      <trkpt lat="47.30705" lon="7.6392"></trkpt>
      <trkpt lat="47.30702" lon="7.63908"></trkpt>
      <trkpt lat="47.30689" lon="7.63848"></trkpt>
      <trkpt lat="47.30671" lon="7.63775"></trkpt>
      <trkpt lat="47.30654" lon="7.63722"></trkpt>
      <trkpt lat="47.3063" lon="7.6366"></trkpt>
      <trkpt lat="47.306" lon="7.63595"></trkpt>
      <trkpt lat="47.30562" lon="7.6353"></trkpt>
      <trkpt lat="47.30524" lon="7.63477"></trkpt>
      <trkpt lat="47.30518" lon="7.63468"></trkpt>
      <trkpt lat="47.30514" lon="7.63454"></trkpt>
      <trkpt lat="47.30513" lon="7.63449"></trkpt>
      <trkpt lat="47.30494" lon="7.6329"></trkpt>
      <trkpt lat="47.30491" lon="7.63233"></trkpt>
      <trkpt lat="47.30489" lon="7.63166"></trkpt>
      <trkpt lat="47.30487" lon="7.63152"></trkpt>
      <trkpt lat="47.30479" lon="7.63156"></trkpt>
      <trkpt lat="47.30466" lon="7.63162"></trkpt>
      <trkpt lat="47.30436" lon="7.63172"></trkpt>
      <trkpt lat="47.30414" lon="7.63178"></trkpt>
      <trkpt lat="47.30362" lon="7.6319"></trkpt>
      <trkpt lat="47.30338" lon="7.63197"></trkpt>
      <trkpt lat="47.30319" lon="7.63201"></trkpt>
      <trkpt lat="47.30308" lon="7.63207"></trkpt>
      <trkpt lat="47.30305" lon="7.63201"></trkpt>
      <trkpt lat="47.30275" lon="7.63213"></trkpt>
      <trkpt lat="47.30264" lon="7.6318"></trkpt>
      <trkpt lat="47.30258" lon="7.63165"></trkpt>
      <trkpt lat="47.30251" lon="7.63155"></trkpt>
      <trkpt lat="47.30248" lon="7.6315"></trkpt>
      <trkpt lat="47.30214" lon="7.6311"></trkpt>
      <trkpt lat="47.30197" lon="7.63088"></trkpt>
      <trkpt lat="47.30178" lon="7.63054"></trkpt>
      <trkpt lat="47.30162" lon="7.63006"></trkpt>
      <trkpt lat="47.30137" lon="7.62926"></trkpt>
      <trkpt lat="47.30099" lon="7.62797"></trkpt>
      <trkpt lat="47.30068" lon="7.62816"></trkpt>
      <trkpt lat="47.29999" lon="7.62544"></trkpt>
      <trkpt lat="47.29994" lon="7.6254"></trkpt>
      <trkpt lat="47.29973" lon="7.62547"></trkpt>
      <trkpt lat="47.29965" lon="7.62548"></trkpt>
      <trkpt lat="47.2996" lon="7.62545"></trkpt>
      <trkpt lat="47.29957" lon="7.62533"></trkpt>
      <trkpt lat="47.2993" lon="7.62325"></trkpt>
      <trkpt lat="47.29929" lon="7.62295"></trkpt>
      <trkpt lat="47.29931" lon="7.6228"></trkpt>
      <trkpt lat="47.2993" lon="7.62272"></trkpt>
      <trkpt lat="47.29923" lon="7.62249"></trkpt>
      <trkpt lat="47.29919" lon="7.62225"></trkpt>
      <trkpt lat="47.29908" lon="7.6214"></trkpt>
      <trkpt lat="47.29892" lon="7.61997"></trkpt>
      <trkpt lat="47.29876" lon="7.61899"></trkpt>
      <trkpt lat="47.29869" lon="7.61858"></trkpt>
      <trkpt lat="47.29856" lon="7.61782"></trkpt>
      <trkpt lat="47.29835" lon="7.61672"></trkpt>
      <trkpt lat="47.29824" lon="7.61628"></trkpt>
      <trkpt lat="47.29807" lon="7.61584"></trkpt>
      <trkpt lat="47.29795" lon="7.61559"></trkpt>
      <trkpt lat="47.29792" lon="7.61552"></trkpt>
      <trkpt lat="47.2977" lon="7.61526"></trkpt>
      <trkpt lat="47.29766" lon="7.61511"></trkpt>
      <trkpt lat="47.29765" lon="7.61499"></trkpt>
      <trkpt lat="47.29772" lon="7.61502"></trkpt>
      <trkpt lat="47.29788" lon="7.61506"></trkpt>
      <trkpt lat="47.29808" lon="7.61508"></trkpt>
      <trkpt lat="47.29815" lon="7.61508"></trkpt>
      <trkpt lat="47.2982" lon="7.61508"></trkpt>
      <trkpt lat="47.29827" lon="7.61508"></trkpt>
      <trkpt lat="47.29831" lon="7.61507"></trkpt>
      <trkpt lat="47.2984" lon="7.61503"></trkpt>
      <trkpt lat="47.29846" lon="7.61495"></trkpt>
      <trkpt lat="47.29853" lon="7.61467"></trkpt>
      <trkpt lat="47.29848" lon="7.61463"></trkpt>
      <trkpt lat="47.29844" lon="7.61458"></trkpt>
      <trkpt lat="47.29832" lon="7.61427"></trkpt>
      <trkpt lat="47.29818" lon="7.61388"></trkpt>
      <trkpt lat="47.29796" lon="7.61115"></trkpt>
      <trkpt lat="47.29791" lon="7.61072"></trkpt>
      <trkpt lat="47.29784" lon="7.61034"></trkpt>
      <trkpt lat="47.29752" lon="7.60856"></trkpt>
      <trkpt lat="47.29707" lon="7.60619"></trkpt>
      <trkpt lat="47.29657" lon="7.60359"></trkpt>
      <trkpt lat="47.29639" lon="7.60267"></trkpt>
      <trkpt lat="47.29627" lon="7.60198"></trkpt>
      <trkpt lat="47.29625" lon="7.6018"></trkpt>
      <trkpt lat="47.29615" lon="7.60096"></trkpt>
      <trkpt lat="47.29603" lon="7.59994"></trkpt>
      <trkpt lat="47.29599" lon="7.59946"></trkpt>
      <trkpt lat="47.29596" lon="7.59882"></trkpt>
      <trkpt lat="47.29596" lon="7.59854"></trkpt>
      <trkpt lat="47.29596" lon="7.59796"></trkpt>
      <trkpt lat="47.29596" lon="7.59723"></trkpt>
      <trkpt lat="47.29596" lon="7.59623"></trkpt>
      <trkpt lat="47.29595" lon="7.59603"></trkpt>
      <trkpt lat="47.29583" lon="7.59543"></trkpt>
      <trkpt lat="47.29575" lon="7.59491"></trkpt>
      <trkpt lat="47.29568" lon="7.59396"></trkpt>
      <trkpt lat="47.29564" lon="7.59378"></trkpt>
      <trkpt lat="47.29558" lon="7.59368"></trkpt>
      <trkpt lat="47.2956" lon="7.59362"></trkpt>
      <trkpt lat="47.29563" lon="7.59355"></trkpt>
      <trkpt lat="47.29565" lon="7.59337"></trkpt>
      <trkpt lat="47.29568" lon="7.593"></trkpt>
      <trkpt lat="47.29568" lon="7.59297"></trkpt>
      <trkpt lat="47.29569" lon="7.59269"></trkpt>
      <trkpt lat="47.2957" lon="7.59252"></trkpt>
      <trkpt lat="47.2957" lon="7.59239"></trkpt>
      <trkpt lat="47.29569" lon="7.59234"></trkpt>
      <trkpt lat="47.29568" lon="7.5923"></trkpt>
      <trkpt lat="47.29578" lon="7.59219"></trkpt>
      <trkpt lat="47.29582" lon="7.59209"></trkpt>
      <trkpt lat="47.29583" lon="7.59207"></trkpt>
      <trkpt lat="47.29586" lon="7.59193"></trkpt>
      <trkpt lat="47.29594" lon="7.59178"></trkpt>
      <trkpt lat="47.29603" lon="7.59164"></trkpt>
      <trkpt lat="47.29605" lon="7.59159"></trkpt>
      <trkpt lat="47.2961" lon="7.59147"></trkpt>
      <trkpt lat="47.29613" lon="7.59134"></trkpt>
      <trkpt lat="47.29616" lon="7.59121"></trkpt>
      <trkpt lat="47.29618" lon="7.591"></trkpt>
      <trkpt lat="47.29618" lon="7.59086"></trkpt>
      <trkpt lat="47.29615" lon="7.59072"></trkpt>
      <trkpt lat="47.29614" lon="7.59065"></trkpt>
      <trkpt lat="47.29609" lon="7.59049"></trkpt>
      <trkpt lat="47.29607" lon="7.59046"></trkpt>
      <trkpt lat="47.29603" lon="7.59036"></trkpt>
      <trkpt lat="47.29558" lon="7.58933"></trkpt>
      <trkpt lat="47.29548" lon="7.58909"></trkpt>
      <trkpt lat="47.29525" lon="7.58839"></trkpt>
      <trkpt lat="47.29501" lon="7.58767"></trkpt>
      <trkpt lat="47.29496" lon="7.58748"></trkpt>
      <trkpt lat="47.29494" lon="7.58729"></trkpt>
      <trkpt lat="47.29493" lon="7.58712"></trkpt>
      <trkpt lat="47.29492" lon="7.58698"></trkpt>
      <trkpt lat="47.29489" lon="7.58685"></trkpt>
      <trkpt lat="47.29484" lon="7.58667"></trkpt>
      <trkpt lat="47.29482" lon="7.5866"></trkpt>
      <trkpt lat="47.29478" lon="7.58641"></trkpt>
      <trkpt lat="47.29469" lon="7.5862"></trkpt>
      <trkpt lat="47.29459" lon="7.58603"></trkpt>
      <trkpt lat="47.29439" lon="7.58563"></trkpt>
      <trkpt lat="47.29426" lon="7.58537"></trkpt>
      <trkpt lat="47.29402" lon="7.58483"></trkpt>
      <trkpt lat="47.29389" lon="7.58437"></trkpt>
      <trkpt lat="47.29381" lon="7.58351"></trkpt>
      <trkpt lat="47.29379" lon="7.58341"></trkpt>
      <trkpt lat="47.29376" lon="7.58331"></trkpt>
      <trkpt lat="47.29346" lon="7.58263"></trkpt>
      <trkpt lat="47.29325" lon="7.58222"></trkpt>
      <trkpt lat="47.29315" lon="7.58189"></trkpt>
      <trkpt lat="47.29304" lon="7.58148"></trkpt>
      <trkpt lat="47.2929" lon="7.58087"></trkpt>
      <trkpt lat="47.29282" lon="7.58055"></trkpt>
      <trkpt lat="47.29277" lon="7.58033"></trkpt>
      <trkpt lat="47.29261" lon="7.57985"></trkpt>
      <trkpt lat="47.2926" lon="7.57977"></trkpt>
      <trkpt lat="47.29257" lon="7.57962"></trkpt>
      <trkpt lat="47.29256" lon="7.57957"></trkpt>
      <trkpt lat="47.29252" lon="7.57948"></trkpt>
      <trkpt lat="47.2924" lon="7.57916"></trkpt>
      <trkpt lat="47.29233" lon="7.57892"></trkpt>
      <trkpt lat="47.29229" lon="7.57874"></trkpt>
      <trkpt lat="47.29227" lon="7.57867"></trkpt>
      <trkpt lat="47.29226" lon="7.57863"></trkpt>
      <trkpt lat="47.29223" lon="7.57858"></trkpt>
      <trkpt lat="47.29208" lon="7.57838"></trkpt>
      <trkpt lat="47.29163" lon="7.57772"></trkpt>
      <trkpt lat="47.29151" lon="7.57756"></trkpt>
      <trkpt lat="47.29142" lon="7.57745"></trkpt>
      <trkpt lat="47.29131" lon="7.57735"></trkpt>
      <trkpt lat="47.29125" lon="7.57731"></trkpt>
      <trkpt lat="47.29121" lon="7.57729"></trkpt>
      <trkpt lat="47.2911" lon="7.57673"></trkpt>
      <trkpt lat="47.29105" lon="7.57656"></trkpt>
      <trkpt lat="47.29077" lon="7.57611"></trkpt>
      <trkpt lat="47.29057" lon="7.57521"></trkpt>
      <trkpt lat="47.29043" lon="7.57483"></trkpt>
      <trkpt lat="47.29023" lon="7.57441"></trkpt>
      <trkpt lat="47.29016" lon="7.57421"></trkpt>
      <trkpt lat="47.29007" lon="7.57384"></trkpt>
      <trkpt lat="47.29005" lon="7.57377"></trkpt>
      <trkpt lat="47.29002" lon="7.57371"></trkpt>
      <trkpt lat="47.28998" lon="7.57365"></trkpt>
      <trkpt lat="47.28986" lon="7.5735"></trkpt>
      <trkpt lat="47.28938" lon="7.57275"></trkpt>
      <trkpt lat="47.28912" lon="7.57237"></trkpt>
      <trkpt lat="47.28889" lon="7.57194"></trkpt>
      <trkpt lat="47.28872" lon="7.57151"></trkpt>
      <trkpt lat="47.2884" lon="7.57083"></trkpt>
      <trkpt lat="47.28817" lon="7.57041"></trkpt>
      <trkpt lat="47.28803" lon="7.57002"></trkpt>
      <trkpt lat="47.28794" lon="7.56961"></trkpt>
      <trkpt lat="47.2878" lon="7.56919"></trkpt>
      <trkpt lat="47.28765" lon="7.56888"></trkpt>
      <trkpt lat="47.28747" lon="7.56833"></trkpt>
      <trkpt lat="47.28738" lon="7.5681"></trkpt>
      <trkpt lat="47.28728" lon="7.56789"></trkpt>
      <trkpt lat="47.28721" lon="7.56769"></trkpt>
      <trkpt lat="47.28716" lon="7.56748"></trkpt>
      <trkpt lat="47.28709" lon="7.5672"></trkpt>
      <trkpt lat="47.28697" lon="7.56694"></trkpt>
      <trkpt lat="47.28687" lon="7.56688"></trkpt>
      <trkpt lat="47.28682" lon="7.56667"></trkpt>
      <trkpt lat="47.28679" lon="7.56658"></trkpt>
      <trkpt lat="47.2867" lon="7.56629"></trkpt>
      <trkpt lat="47.28666" lon="7.56618"></trkpt>
      <trkpt lat="47.2866" lon="7.566"></trkpt>
      <trkpt lat="47.28651" lon="7.56575"></trkpt>
      <trkpt lat="47.28644" lon="7.56575"></trkpt>
      <trkpt lat="47.28632" lon="7.56562"></trkpt>
      <trkpt lat="47.28613" lon="7.56541"></trkpt>
      <trkpt lat="47.28597" lon="7.56523"></trkpt>
      <trkpt lat="47.28589" lon="7.56519"></trkpt>
      <trkpt lat="47.28579" lon="7.56517"></trkpt>
      <trkpt lat="47.28565" lon="7.56524"></trkpt>
      <trkpt lat="47.28546" lon="7.56545"></trkpt>
      <trkpt lat="47.28533" lon="7.56558"></trkpt>
      <trkpt lat="47.28527" lon="7.56565"></trkpt>
      <trkpt lat="47.28511" lon="7.56595"></trkpt>
      <trkpt lat="47.28508" lon="7.56591"></trkpt>
      <trkpt lat="47.28504" lon="7.56585"></trkpt>
      <trkpt lat="47.28457" lon="7.56497"></trkpt>
      <trkpt lat="47.28394" lon="7.56408"></trkpt>
      <trkpt lat="47.28408" lon="7.56386"></trkpt>
      <trkpt lat="47.28414" lon="7.56377"></trkpt>
      <trkpt lat="47.28425" lon="7.56364"></trkpt>
      <trkpt lat="47.28429" lon="7.56359"></trkpt>
      <trkpt lat="47.28434" lon="7.56355"></trkpt>
      <trkpt lat="47.28437" lon="7.56351"></trkpt>
      <trkpt lat="47.28438" lon="7.56348"></trkpt>
      <trkpt lat="47.2844" lon="7.56344"></trkpt>
      <trkpt lat="47.2844" lon="7.5634"></trkpt>
      <trkpt lat="47.28441" lon="7.5633"></trkpt>
      <trkpt lat="47.28441" lon="7.56327"></trkpt>
      <trkpt lat="47.2844" lon="7.56324"></trkpt>
      <trkpt lat="47.28439" lon="7.56322"></trkpt>
      <trkpt lat="47.28437" lon="7.56321"></trkpt>
      <trkpt lat="47.28436" lon="7.56319"></trkpt>
      <trkpt lat="47.28434" lon="7.56319"></trkpt>
      <trkpt lat="47.28424" lon="7.56318"></trkpt>
      <trkpt lat="47.28407" lon="7.56318"></trkpt>
      <trkpt lat="47.28396" lon="7.56318"></trkpt>
      <trkpt lat="47.28391" lon="7.56317"></trkpt>
      <trkpt lat="47.28385" lon="7.56316"></trkpt>
      <trkpt lat="47.28379" lon="7.56314"></trkpt>
      <trkpt lat="47.2837" lon="7.56309"></trkpt>
      <trkpt lat="47.28367" lon="7.56306"></trkpt>
      <trkpt lat="47.28365" lon="7.56304"></trkpt>
      <trkpt lat="47.28364" lon="7.56303"></trkpt>
      <trkpt lat="47.28363" lon="7.56301"></trkpt>
      <trkpt lat="47.28358" lon="7.56292"></trkpt>
      <trkpt lat="47.28348" lon="7.56269"></trkpt>
      <trkpt lat="47.28338" lon="7.56251"></trkpt>
      <trkpt lat="47.28336" lon="7.56247"></trkpt>
      <trkpt lat="47.28334" lon="7.56243"></trkpt>
      <trkpt lat="47.28333" lon="7.56239"></trkpt>
      <trkpt lat="47.28332" lon="7.56235"></trkpt>
      <trkpt lat="47.28333" lon="7.56232"></trkpt>
      <trkpt lat="47.28333" lon="7.56229"></trkpt>
      <trkpt lat="47.28334" lon="7.56225"></trkpt>
      <trkpt lat="47.28337" lon="7.56218"></trkpt>
      <trkpt lat="47.28339" lon="7.56212"></trkpt>
      <trkpt lat="47.28341" lon="7.56207"></trkpt>
      <trkpt lat="47.28342" lon="7.56201"></trkpt>
      <trkpt lat="47.28344" lon="7.56191"></trkpt>
      <trkpt lat="47.28345" lon="7.56169"></trkpt>
      <trkpt lat="47.28346" lon="7.56148"></trkpt>
      <trkpt lat="47.28346" lon="7.56144"></trkpt>
      <trkpt lat="47.28346" lon="7.5614"></trkpt>
      <trkpt lat="47.28344" lon="7.56131"></trkpt>
      <trkpt lat="47.28342" lon="7.56126"></trkpt>
      <trkpt lat="47.28338" lon="7.56121"></trkpt>
      <trkpt lat="47.28334" lon="7.56117"></trkpt>
      <trkpt lat="47.28327" lon="7.56113"></trkpt>
      <trkpt lat="47.28308" lon="7.56102"></trkpt>
      <trkpt lat="47.28302" lon="7.56098"></trkpt>
      <trkpt lat="47.28296" lon="7.56094"></trkpt>
      <trkpt lat="47.28291" lon="7.56089"></trkpt>
      <trkpt lat="47.28267" lon="7.56061"></trkpt>
      <trkpt lat="47.28262" lon="7.56054"></trkpt>
      <trkpt lat="47.28255" lon="7.56045"></trkpt>
      <trkpt lat="47.28251" lon="7.56038"></trkpt>
      <trkpt lat="47.28247" lon="7.5603"></trkpt>
      <trkpt lat="47.28241" lon="7.56016"></trkpt>
      <trkpt lat="47.28229" lon="7.55974"></trkpt>
      <trkpt lat="47.28223" lon="7.55953"></trkpt>
      <trkpt lat="47.28218" lon="7.5594"></trkpt>
      <trkpt lat="47.28215" lon="7.5593"></trkpt>
      <trkpt lat="47.282" lon="7.55905"></trkpt>
      <trkpt lat="47.2818" lon="7.55858"></trkpt>
      <trkpt lat="47.28174" lon="7.55834"></trkpt>
      <trkpt lat="47.28169" lon="7.55807"></trkpt>
      <trkpt lat="47.28167" lon="7.55797"></trkpt>
      <trkpt lat="47.28165" lon="7.55789"></trkpt>
      <trkpt lat="47.28163" lon="7.55783"></trkpt>
      <trkpt lat="47.28161" lon="7.55777"></trkpt>
      <trkpt lat="47.28157" lon="7.55767"></trkpt>
      <trkpt lat="47.28153" lon="7.55757"></trkpt>
      <trkpt lat="47.28152" lon="7.55751"></trkpt>
      <trkpt lat="47.28151" lon="7.55746"></trkpt>
      <trkpt lat="47.28151" lon="7.55737"></trkpt>
      <trkpt lat="47.28116" lon="7.55737"></trkpt>
      <trkpt lat="47.2811" lon="7.55738"></trkpt>
      <trkpt lat="47.28106" lon="7.55738"></trkpt>
      <trkpt lat="47.281" lon="7.5574"></trkpt>
      <trkpt lat="47.28095" lon="7.55742"></trkpt>
      <trkpt lat="47.28091" lon="7.55745"></trkpt>
      <trkpt lat="47.28086" lon="7.55748"></trkpt>
      <trkpt lat="47.28082" lon="7.55752"></trkpt>
      <trkpt lat="47.2808" lon="7.55756"></trkpt>
      <trkpt lat="47.28079" lon="7.5576"></trkpt>
      <trkpt lat="47.28078" lon="7.55763"></trkpt>
      <trkpt lat="47.28079" lon="7.55768"></trkpt>
      <trkpt lat="47.2808" lon="7.55781"></trkpt>
      <trkpt lat="47.2808" lon="7.55789"></trkpt>
      <trkpt lat="47.2808" lon="7.55796"></trkpt>
      <trkpt lat="47.28078" lon="7.55803"></trkpt>
      <trkpt lat="47.28073" lon="7.55821"></trkpt>
      <trkpt lat="47.28073" lon="7.55826"></trkpt>
      <trkpt lat="47.28073" lon="7.55831"></trkpt>
      <trkpt lat="47.28074" lon="7.55838"></trkpt>
      <trkpt lat="47.28077" lon="7.55849"></trkpt>
      <trkpt lat="47.28077" lon="7.55856"></trkpt>
      <trkpt lat="47.28077" lon="7.55864"></trkpt>
      <trkpt lat="47.28076" lon="7.55872"></trkpt>
      <trkpt lat="47.28074" lon="7.55878"></trkpt>
      <trkpt lat="47.28071" lon="7.55883"></trkpt>
      <trkpt lat="47.28068" lon="7.55886"></trkpt>
      <trkpt lat="47.28065" lon="7.55887"></trkpt>
      <trkpt lat="47.2806" lon="7.55886"></trkpt>
      <trkpt lat="47.28057" lon="7.55883"></trkpt>
      <trkpt lat="47.28055" lon="7.55878"></trkpt>
      <trkpt lat="47.28052" lon="7.55871"></trkpt>
      <trkpt lat="47.2805" lon="7.55862"></trkpt>
      <trkpt lat="47.28049" lon="7.55855"></trkpt>
      <trkpt lat="47.28049" lon="7.5584"></trkpt>
      <trkpt lat="47.28049" lon="7.55828"></trkpt>
      <trkpt lat="47.28048" lon="7.55821"></trkpt>
      <trkpt lat="47.28046" lon="7.55814"></trkpt>
      <trkpt lat="47.28043" lon="7.55808"></trkpt>
      <trkpt lat="47.28038" lon="7.55804"></trkpt>
      <trkpt lat="47.28028" lon="7.55794"></trkpt>
      <trkpt lat="47.28021" lon="7.55789"></trkpt>
      <trkpt lat="47.28017" lon="7.55785"></trkpt>
      <trkpt lat="47.28015" lon="7.55781"></trkpt>
      <trkpt lat="47.28015" lon="7.55775"></trkpt>
      <trkpt lat="47.28015" lon="7.5577"></trkpt>
      <trkpt lat="47.28017" lon="7.55764"></trkpt>
      <trkpt lat="47.28023" lon="7.55751"></trkpt>
      <trkpt lat="47.28029" lon="7.55736"></trkpt>
      <trkpt lat="47.28032" lon="7.55724"></trkpt>
      <trkpt lat="47.28033" lon="7.55717"></trkpt>
      <trkpt lat="47.28033" lon="7.55708"></trkpt>
      <trkpt lat="47.28032" lon="7.55695"></trkpt>
      <trkpt lat="47.28029" lon="7.55679"></trkpt>
      <trkpt lat="47.28021" lon="7.55653"></trkpt>
      <trkpt lat="47.28012" lon="7.55633"></trkpt>
      <trkpt lat="47.28004" lon="7.55613"></trkpt>
      <trkpt lat="47.28002" lon="7.55605"></trkpt>
      <trkpt lat="47.28001" lon="7.55597"></trkpt>
      <trkpt lat="47.28001" lon="7.55587"></trkpt>
      <trkpt lat="47.28002" lon="7.5558"></trkpt>
      <trkpt lat="47.28004" lon="7.55574"></trkpt>
      <trkpt lat="47.28009" lon="7.55569"></trkpt>
      <trkpt lat="47.28015" lon="7.55564"></trkpt>
      <trkpt lat="47.28022" lon="7.5556"></trkpt>
      <trkpt lat="47.28043" lon="7.55551"></trkpt>
      <trkpt lat="47.28047" lon="7.55548"></trkpt>
      <trkpt lat="47.2805" lon="7.55544"></trkpt>
      <trkpt lat="47.28053" lon="7.55538"></trkpt>
      <trkpt lat="47.28059" lon="7.55517"></trkpt>
      <trkpt lat="47.28071" lon="7.55477"></trkpt>
      <trkpt lat="47.28074" lon="7.55467"></trkpt>
      <trkpt lat="47.28067" lon="7.5546"></trkpt>
      <trkpt lat="47.28059" lon="7.55456"></trkpt>
      <trkpt lat="47.28042" lon="7.55452"></trkpt>
      <trkpt lat="47.28032" lon="7.55448"></trkpt>
      <trkpt lat="47.28027" lon="7.55444"></trkpt>
      <trkpt lat="47.28023" lon="7.5544"></trkpt>
      <trkpt lat="47.28019" lon="7.55435"></trkpt>
      <trkpt lat="47.28016" lon="7.55427"></trkpt>
      <trkpt lat="47.28003" lon="7.55395"></trkpt>
      <trkpt lat="47.27993" lon="7.55368"></trkpt>
      <trkpt lat="47.2799" lon="7.5535"></trkpt>
      <trkpt lat="47.2799" lon="7.55326"></trkpt>
      <trkpt lat="47.27992" lon="7.55298"></trkpt>
      <trkpt lat="47.28008" lon="7.55201"></trkpt>
      <trkpt lat="47.28013" lon="7.55177"></trkpt>
      <trkpt lat="47.28017" lon="7.55169"></trkpt>
      <trkpt lat="47.2802" lon="7.55156"></trkpt>
      <trkpt lat="47.28022" lon="7.55146"></trkpt>
      <trkpt lat="47.28022" lon="7.55134"></trkpt>
      <trkpt lat="47.2802" lon="7.55116"></trkpt>
      <trkpt lat="47.28012" lon="7.5508"></trkpt>
      <trkpt lat="47.28005" lon="7.55059"></trkpt>
      <trkpt lat="47.28002" lon="7.55053"></trkpt>
      <trkpt lat="47.27984" lon="7.55017"></trkpt>
      <trkpt lat="47.27978" lon="7.55004"></trkpt>
      <trkpt lat="47.27976" lon="7.5499"></trkpt>
      <trkpt lat="47.27976" lon="7.54977"></trkpt>
      <trkpt lat="47.27978" lon="7.54966"></trkpt>
      <trkpt lat="47.27983" lon="7.54947"></trkpt>
      <trkpt lat="47.27984" lon="7.54939"></trkpt>
      <trkpt lat="47.27984" lon="7.54931"></trkpt>
      <trkpt lat="47.27981" lon="7.54917"></trkpt>
      <trkpt lat="47.27975" lon="7.54899"></trkpt>
      <trkpt lat="47.27967" lon="7.54887"></trkpt>
      <trkpt lat="47.27955" lon="7.54873"></trkpt>
      <trkpt lat="47.27951" lon="7.54866"></trkpt>
      <trkpt lat="47.27948" lon="7.54858"></trkpt>
      <trkpt lat="47.27935" lon="7.54799"></trkpt>
      <trkpt lat="47.27933" lon="7.54789"></trkpt>
      <trkpt lat="47.27932" lon="7.54781"></trkpt>
      <trkpt lat="47.27931" lon="7.54746"></trkpt>
      <trkpt lat="47.27929" lon="7.5473"></trkpt>
      <trkpt lat="47.27925" lon="7.54714"></trkpt>
      <trkpt lat="47.27921" lon="7.54704"></trkpt>
      <trkpt lat="47.27911" lon="7.54681"></trkpt>
      <trkpt lat="47.27907" lon="7.54669"></trkpt>
      <trkpt lat="47.27904" lon="7.54651"></trkpt>
      <trkpt lat="47.27903" lon="7.54638"></trkpt>
      <trkpt lat="47.27898" lon="7.54624"></trkpt>
      <trkpt lat="47.27881" lon="7.54594"></trkpt>
      <trkpt lat="47.27868" lon="7.54569"></trkpt>
      <trkpt lat="47.27858" lon="7.54546"></trkpt>
      <trkpt lat="47.27854" lon="7.54529"></trkpt>
      <trkpt lat="47.27853" lon="7.54506"></trkpt>
      <trkpt lat="47.27854" lon="7.54494"></trkpt>
      <trkpt lat="47.27857" lon="7.54461"></trkpt>
      <trkpt lat="47.27857" lon="7.54436"></trkpt>
      <trkpt lat="47.27856" lon="7.54419"></trkpt>
      <trkpt lat="47.27851" lon="7.54392"></trkpt>
      <trkpt lat="47.27846" lon="7.54375"></trkpt>
      <trkpt lat="47.27836" lon="7.54359"></trkpt>
      <trkpt lat="47.27828" lon="7.54349"></trkpt>
      <trkpt lat="47.2781" lon="7.54333"></trkpt>
      <trkpt lat="47.27776" lon="7.54297"></trkpt>
      <trkpt lat="47.27773" lon="7.54305"></trkpt>
      <trkpt lat="47.27766" lon="7.54323"></trkpt>
      <trkpt lat="47.27744" lon="7.54389"></trkpt>
      <trkpt lat="47.27744" lon="7.54411"></trkpt>
      <trkpt lat="47.27744" lon="7.54415"></trkpt>
      <trkpt lat="47.27743" lon="7.54419"></trkpt>
      <trkpt lat="47.27742" lon="7.54423"></trkpt>
      <trkpt lat="47.2774" lon="7.54426"></trkpt>
      <trkpt lat="47.27739" lon="7.54429"></trkpt>
      <trkpt lat="47.27737" lon="7.54432"></trkpt>
      <trkpt lat="47.27735" lon="7.54434"></trkpt>
      <trkpt lat="47.27706" lon="7.54456"></trkpt>
      <trkpt lat="47.27696" lon="7.5443"></trkpt>
      <trkpt lat="47.27696" lon="7.54426"></trkpt>
      <trkpt lat="47.27696" lon="7.54423"></trkpt>
      <trkpt lat="47.27696" lon="7.54419"></trkpt>
      <trkpt lat="47.27702" lon="7.54406"></trkpt>
      <trkpt lat="47.27702" lon="7.54403"></trkpt>
      <trkpt lat="47.27705" lon="7.5439"></trkpt>
      <trkpt lat="47.27699" lon="7.54387"></trkpt>
      <trkpt lat="47.27694" lon="7.54382"></trkpt>
      <trkpt lat="47.2769" lon="7.54374"></trkpt>
      <trkpt lat="47.27687" lon="7.54363"></trkpt>
      <trkpt lat="47.27685" lon="7.54353"></trkpt>
      <trkpt lat="47.27684" lon="7.54345"></trkpt>
      <trkpt lat="47.27677" lon="7.5434"></trkpt>
      <trkpt lat="47.2767" lon="7.54336"></trkpt>
      <trkpt lat="47.27668" lon="7.54335"></trkpt>
      <trkpt lat="47.27666" lon="7.54335"></trkpt>
      <trkpt lat="47.27663" lon="7.54335"></trkpt>
      <trkpt lat="47.27656" lon="7.54336"></trkpt>
      <trkpt lat="47.27631" lon="7.54344"></trkpt>
      <trkpt lat="47.27625" lon="7.54344"></trkpt>
      <trkpt lat="47.27619" lon="7.54344"></trkpt>
      <trkpt lat="47.27612" lon="7.5434"></trkpt>
      <trkpt lat="47.2758" lon="7.54311"></trkpt>
      <trkpt lat="47.2757" lon="7.54302"></trkpt>
      <trkpt lat="47.27566" lon="7.543"></trkpt>
      <trkpt lat="47.2756" lon="7.54298"></trkpt>
      <trkpt lat="47.27555" lon="7.54299"></trkpt>
      <trkpt lat="47.27546" lon="7.54301"></trkpt>
      <trkpt lat="47.27534" lon="7.54303"></trkpt>
      <trkpt lat="47.2753" lon="7.54303"></trkpt>
      <trkpt lat="47.27527" lon="7.54302"></trkpt>
      <trkpt lat="47.27523" lon="7.543"></trkpt>
      <trkpt lat="47.27521" lon="7.54296"></trkpt>
      <trkpt lat="47.2751" lon="7.54271"></trkpt>
      <trkpt lat="47.27507" lon="7.54263"></trkpt>
      <trkpt lat="47.27503" lon="7.54248"></trkpt>
      <trkpt lat="47.27497" lon="7.54225"></trkpt>
      <trkpt lat="47.27494" lon="7.54205"></trkpt>
      <trkpt lat="47.27491" lon="7.54193"></trkpt>
      <trkpt lat="47.27481" lon="7.54167"></trkpt>
      <trkpt lat="47.27478" lon="7.54154"></trkpt>
      <trkpt lat="47.27476" lon="7.54143"></trkpt>
      <trkpt lat="47.27474" lon="7.54128"></trkpt>
      <trkpt lat="47.27473" lon="7.54113"></trkpt>
      <trkpt lat="47.27471" lon="7.54103"></trkpt>
      <trkpt lat="47.27467" lon="7.54091"></trkpt>
      <trkpt lat="47.27463" lon="7.54083"></trkpt>
      <trkpt lat="47.27455" lon="7.54072"></trkpt>
      <trkpt lat="47.27437" lon="7.54051"></trkpt>
      <trkpt lat="47.27422" lon="7.54036"></trkpt>
      <trkpt lat="47.27417" lon="7.54031"></trkpt>
      <trkpt lat="47.27413" lon="7.54026"></trkpt>
      <trkpt lat="47.2741" lon="7.54019"></trkpt>
      <trkpt lat="47.27405" lon="7.54005"></trkpt>
      <trkpt lat="47.274" lon="7.53992"></trkpt>
      <trkpt lat="47.27367" lon="7.53928"></trkpt>
      <trkpt lat="47.27353" lon="7.53902"></trkpt>
      <trkpt lat="47.27336" lon="7.53875"></trkpt>
      <trkpt lat="47.27319" lon="7.53852"></trkpt>
      <trkpt lat="47.27311" lon="7.53842"></trkpt>
      <trkpt lat="47.27304" lon="7.53835"></trkpt>
      <trkpt lat="47.27295" lon="7.5383"></trkpt>
      <trkpt lat="47.27287" lon="7.53829"></trkpt>
      <trkpt lat="47.27278" lon="7.53831"></trkpt>
      <trkpt lat="47.2727" lon="7.53834"></trkpt>
      <trkpt lat="47.2726" lon="7.53842"></trkpt>
      <trkpt lat="47.27249" lon="7.53848"></trkpt>
      <trkpt lat="47.27241" lon="7.53849"></trkpt>
      <trkpt lat="47.27231" lon="7.53848"></trkpt>
      <trkpt lat="47.27226" lon="7.53845"></trkpt>
      <trkpt lat="47.27221" lon="7.53835"></trkpt>
      <trkpt lat="47.2721" lon="7.5381"></trkpt>
      <trkpt lat="47.27202" lon="7.5378"></trkpt>
      <trkpt lat="47.27199" lon="7.53771"></trkpt>
      <trkpt lat="47.27193" lon="7.53762"></trkpt>
      <trkpt lat="47.27188" lon="7.53755"></trkpt>
      <trkpt lat="47.27173" lon="7.53741"></trkpt>
      <trkpt lat="47.2717" lon="7.53735"></trkpt>
      <trkpt lat="47.27168" lon="7.5373"></trkpt>
      <trkpt lat="47.27167" lon="7.53721"></trkpt>
      <trkpt lat="47.27161" lon="7.53628"></trkpt>
      <trkpt lat="47.27158" lon="7.53596"></trkpt>
      <trkpt lat="47.27157" lon="7.5359"></trkpt>
      <trkpt lat="47.27156" lon="7.53577"></trkpt>
      <trkpt lat="47.27156" lon="7.53564"></trkpt>
      <trkpt lat="47.27158" lon="7.53542"></trkpt>
      <trkpt lat="47.27158" lon="7.5352"></trkpt>
      <trkpt lat="47.27157" lon="7.53508"></trkpt>
      <trkpt lat="47.27156" lon="7.53498"></trkpt>
      <trkpt lat="47.27154" lon="7.53481"></trkpt>
      <trkpt lat="47.27151" lon="7.53455"></trkpt>
      <trkpt lat="47.27142" lon="7.53385"></trkpt>
      <trkpt lat="47.27128" lon="7.53326"></trkpt>
      <trkpt lat="47.27119" lon="7.53286"></trkpt>
      <trkpt lat="47.27104" lon="7.53219"></trkpt>
      <trkpt lat="47.27098" lon="7.53154"></trkpt>
      <trkpt lat="47.27103" lon="7.53092"></trkpt>
      <trkpt lat="47.27101" lon="7.53074"></trkpt>
      <trkpt lat="47.27094" lon="7.53058"></trkpt>
      <trkpt lat="47.27089" lon="7.53044"></trkpt>
      <trkpt lat="47.27085" lon="7.53037"></trkpt>
      <trkpt lat="47.2708" lon="7.53029"></trkpt>
      <trkpt lat="47.27076" lon="7.53025"></trkpt>
      <trkpt lat="47.27073" lon="7.53022"></trkpt>
      <trkpt lat="47.27072" lon="7.53018"></trkpt>
      <trkpt lat="47.27071" lon="7.53013"></trkpt>
      <trkpt lat="47.27071" lon="7.52998"></trkpt>
      <trkpt lat="47.27068" lon="7.52981"></trkpt>
      <trkpt lat="47.27065" lon="7.52973"></trkpt>
      <trkpt lat="47.2706" lon="7.52963"></trkpt>
      <trkpt lat="47.27058" lon="7.52957"></trkpt>
      <trkpt lat="47.27057" lon="7.52956"></trkpt>
      <trkpt lat="47.27056" lon="7.52954"></trkpt>
      <trkpt lat="47.27056" lon="7.52951"></trkpt>
      <trkpt lat="47.27056" lon="7.52946"></trkpt>
      <trkpt lat="47.27056" lon="7.5294"></trkpt>
      <trkpt lat="47.27057" lon="7.52936"></trkpt>
      <trkpt lat="47.27057" lon="7.52934"></trkpt>
      <trkpt lat="47.27058" lon="7.52933"></trkpt>
      <trkpt lat="47.27058" lon="7.52931"></trkpt>
      <trkpt lat="47.27059" lon="7.52931"></trkpt>
      <trkpt lat="47.27059" lon="7.5293"></trkpt>
      <trkpt lat="47.2706" lon="7.5293"></trkpt>
      <trkpt lat="47.27061" lon="7.5293"></trkpt>
      <trkpt lat="47.27065" lon="7.52931"></trkpt>
      <trkpt lat="47.27069" lon="7.5293"></trkpt>
      <trkpt lat="47.27082" lon="7.52922"></trkpt>
      <trkpt lat="47.27104" lon="7.5291"></trkpt>
      <trkpt lat="47.27119" lon="7.52902"></trkpt>
      <trkpt lat="47.27122" lon="7.529"></trkpt>
      <trkpt lat="47.27124" lon="7.52898"></trkpt>
      <trkpt lat="47.27127" lon="7.52893"></trkpt>
      <trkpt lat="47.27143" lon="7.52859"></trkpt>
      <trkpt lat="47.27145" lon="7.52854"></trkpt>
      <trkpt lat="47.27147" lon="7.52849"></trkpt>
      <trkpt lat="47.27157" lon="7.52838"></trkpt>
      <trkpt lat="47.27163" lon="7.5283"></trkpt>
      <trkpt lat="47.27164" lon="7.52827"></trkpt>
      <trkpt lat="47.27165" lon="7.52823"></trkpt>
      <trkpt lat="47.27166" lon="7.52819"></trkpt>
      <trkpt lat="47.27167" lon="7.52815"></trkpt>
      <trkpt lat="47.27167" lon="7.52812"></trkpt>
      <trkpt lat="47.27167" lon="7.52809"></trkpt>
      <trkpt lat="47.27167" lon="7.52806"></trkpt>
      <trkpt lat="47.27165" lon="7.528"></trkpt>
      <trkpt lat="47.2716" lon="7.52782"></trkpt>
      <trkpt lat="47.27158" lon="7.52776"></trkpt>
      <trkpt lat="47.27155" lon="7.52762"></trkpt>
      <trkpt lat="47.27154" lon="7.52754"></trkpt>
      <trkpt lat="47.2715" lon="7.52738"></trkpt>
      <trkpt lat="47.27146" lon="7.52723"></trkpt>
      <trkpt lat="47.2714" lon="7.52709"></trkpt>
      <trkpt lat="47.27137" lon="7.527"></trkpt>
      <trkpt lat="47.27132" lon="7.52688"></trkpt>
      <trkpt lat="47.27128" lon="7.5268"></trkpt>
      <trkpt lat="47.27126" lon="7.52674"></trkpt>
      <trkpt lat="47.27124" lon="7.52665"></trkpt>
      <trkpt lat="47.27122" lon="7.52657"></trkpt>
      <trkpt lat="47.27121" lon="7.52651"></trkpt>
      <trkpt lat="47.27118" lon="7.52633"></trkpt>
      <trkpt lat="47.27114" lon="7.52613"></trkpt>
      <trkpt lat="47.27111" lon="7.526"></trkpt>
      <trkpt lat="47.2711" lon="7.52595"></trkpt>
      <trkpt lat="47.27108" lon="7.52591"></trkpt>
      <trkpt lat="47.27105" lon="7.52587"></trkpt>
      <trkpt lat="47.271" lon="7.52579"></trkpt>
      <trkpt lat="47.27097" lon="7.52575"></trkpt>
      <trkpt lat="47.27095" lon="7.52571"></trkpt>
      <trkpt lat="47.27091" lon="7.52562"></trkpt>
      <trkpt lat="47.27088" lon="7.52556"></trkpt>
      <trkpt lat="47.27084" lon="7.52549"></trkpt>
      <trkpt lat="47.27077" lon="7.52538"></trkpt>
      <trkpt lat="47.27062" lon="7.52518"></trkpt>
      <trkpt lat="47.27077" lon="7.52557"></trkpt>
      <trkpt lat="47.27078" lon="7.52563"></trkpt>
      <trkpt lat="47.27079" lon="7.52567"></trkpt>
      <trkpt lat="47.27079" lon="7.52571"></trkpt>
      <trkpt lat="47.27079" lon="7.52573"></trkpt>
      <trkpt lat="47.27078" lon="7.52576"></trkpt>
      <trkpt lat="47.27077" lon="7.52578"></trkpt>
      <trkpt lat="47.27076" lon="7.52581"></trkpt>
      <trkpt lat="47.27075" lon="7.52582"></trkpt>
      <trkpt lat="47.27073" lon="7.52583"></trkpt>
      <trkpt lat="47.27071" lon="7.52584"></trkpt>
      <trkpt lat="47.27069" lon="7.52584"></trkpt>
      <trkpt lat="47.27067" lon="7.52583"></trkpt>
      <trkpt lat="47.27064" lon="7.52582"></trkpt>
      <trkpt lat="47.27061" lon="7.52579"></trkpt>
      <trkpt lat="47.27059" lon="7.52576"></trkpt>
      <trkpt lat="47.27056" lon="7.52571"></trkpt>
      <trkpt lat="47.27051" lon="7.5256"></trkpt>
      <trkpt lat="47.27042" lon="7.5254"></trkpt>
      <trkpt lat="47.27027" lon="7.52502"></trkpt>
      <trkpt lat="47.26997" lon="7.52442"></trkpt>
      <trkpt lat="47.26993" lon="7.52429"></trkpt>
      <trkpt lat="47.26991" lon="7.52419"></trkpt>
      <trkpt lat="47.26987" lon="7.52378"></trkpt>
      <trkpt lat="47.26985" lon="7.52356"></trkpt>
      <trkpt lat="47.2698" lon="7.52331"></trkpt>
      <trkpt lat="47.26978" lon="7.52316"></trkpt>
      <trkpt lat="47.26975" lon="7.52307"></trkpt>
      <trkpt lat="47.26972" lon="7.52298"></trkpt>
      <trkpt lat="47.26963" lon="7.52279"></trkpt>
      <trkpt lat="47.2695" lon="7.52254"></trkpt>
      <trkpt lat="47.26941" lon="7.5223"></trkpt>
      <trkpt lat="47.26933" lon="7.5221"></trkpt>
      <trkpt lat="47.26926" lon="7.52187"></trkpt>
      <trkpt lat="47.26919" lon="7.52151"></trkpt>
      <trkpt lat="47.26914" lon="7.52125"></trkpt>
      <trkpt lat="47.2691" lon="7.52111"></trkpt>
      <trkpt lat="47.26903" lon="7.52094"></trkpt>
      <trkpt lat="47.26896" lon="7.52078"></trkpt>
      <trkpt lat="47.26862" lon="7.52005"></trkpt>
      <trkpt lat="47.26829" lon="7.5194"></trkpt>
      <trkpt lat="47.26801" lon="7.51878"></trkpt>
      <trkpt lat="47.26798" lon="7.51868"></trkpt>
      <trkpt lat="47.26796" lon="7.51856"></trkpt>
      <trkpt lat="47.26795" lon="7.51842"></trkpt>
      <trkpt lat="47.26793" lon="7.51835"></trkpt>
      <trkpt lat="47.2679" lon="7.51829"></trkpt>
      <trkpt lat="47.26779" lon="7.51813"></trkpt>
      <trkpt lat="47.26775" lon="7.51806"></trkpt>
      <trkpt lat="47.26771" lon="7.51796"></trkpt>
      <trkpt lat="47.26769" lon="7.51782"></trkpt>
      <trkpt lat="47.26761" lon="7.51728"></trkpt>
      <trkpt lat="47.26758" lon="7.51713"></trkpt>
      <trkpt lat="47.26753" lon="7.51699"></trkpt>
      <trkpt lat="47.26744" lon="7.51682"></trkpt>
      <trkpt lat="47.26729" lon="7.51656"></trkpt>
      <trkpt lat="47.26721" lon="7.51641"></trkpt>
      <trkpt lat="47.26715" lon="7.51623"></trkpt>
      <trkpt lat="47.26711" lon="7.51608"></trkpt>
      <trkpt lat="47.26697" lon="7.51536"></trkpt>
      <trkpt lat="47.26691" lon="7.51513"></trkpt>
      <trkpt lat="47.26665" lon="7.51442"></trkpt>
      <trkpt lat="47.26639" lon="7.51372"></trkpt>
      <trkpt lat="47.26632" lon="7.51357"></trkpt>
      <trkpt lat="47.2661" lon="7.51294"></trkpt>
      <trkpt lat="47.26603" lon="7.51276"></trkpt>
      <trkpt lat="47.26594" lon="7.51254"></trkpt>
      <trkpt lat="47.26578" lon="7.51213"></trkpt>
      <trkpt lat="47.26574" lon="7.51203"></trkpt>
      <trkpt lat="47.26571" lon="7.51193"></trkpt>
      <trkpt lat="47.26567" lon="7.51181"></trkpt>
      <trkpt lat="47.26565" lon="7.51174"></trkpt>
      <trkpt lat="47.26561" lon="7.51171"></trkpt>
      <trkpt lat="47.26559" lon="7.5117"></trkpt>
      <trkpt lat="47.26556" lon="7.51171"></trkpt>
      <trkpt lat="47.26554" lon="7.51173"></trkpt>
      <trkpt lat="47.26553" lon="7.51176"></trkpt>
      <trkpt lat="47.26553" lon="7.51182"></trkpt>
      <trkpt lat="47.26554" lon="7.51187"></trkpt>
      <trkpt lat="47.26557" lon="7.51194"></trkpt>
      <trkpt lat="47.26559" lon="7.512"></trkpt>
      <trkpt lat="47.2656" lon="7.51208"></trkpt>
      <trkpt lat="47.26561" lon="7.51217"></trkpt>
      <trkpt lat="47.26558" lon="7.51261"></trkpt>
      <trkpt lat="47.26557" lon="7.51293"></trkpt>
      <trkpt lat="47.26557" lon="7.51318"></trkpt>
      <trkpt lat="47.26558" lon="7.51362"></trkpt>
      <trkpt lat="47.26561" lon="7.51405"></trkpt>
      <trkpt lat="47.26574" lon="7.51497"></trkpt>
      <trkpt lat="47.26577" lon="7.51542"></trkpt>
      <trkpt lat="47.26573" lon="7.51541"></trkpt>
      <trkpt lat="47.26567" lon="7.51514"></trkpt>
      <trkpt lat="47.2656" lon="7.51496"></trkpt>
      <trkpt lat="47.26547" lon="7.51471"></trkpt>
      <trkpt lat="47.26539" lon="7.51449"></trkpt>
      <trkpt lat="47.26534" lon="7.51437"></trkpt>
      <trkpt lat="47.26527" lon="7.51423"></trkpt>
      <trkpt lat="47.26522" lon="7.51414"></trkpt>
      <trkpt lat="47.26517" lon="7.51408"></trkpt>
      <trkpt lat="47.26514" lon="7.51401"></trkpt>
      <trkpt lat="47.26506" lon="7.51381"></trkpt>
      <trkpt lat="47.26441" lon="7.51256"></trkpt>
      <trkpt lat="47.26436" lon="7.51239"></trkpt>
      <trkpt lat="47.26432" lon="7.5122"></trkpt>
      <trkpt lat="47.26394" lon="7.51123"></trkpt>
      <trkpt lat="47.26348" lon="7.51018"></trkpt>
      <trkpt lat="47.263" lon="7.50924"></trkpt>
      <trkpt lat="47.26274" lon="7.50872"></trkpt>
      <trkpt lat="47.26236" lon="7.50822"></trkpt>
      <trkpt lat="47.26201" lon="7.50753"></trkpt>
      <trkpt lat="47.26136" lon="7.50642"></trkpt>
      <trkpt lat="47.26089" lon="7.50553"></trkpt>
      <trkpt lat="47.26075" lon="7.5051"></trkpt>
      <trkpt lat="47.26062" lon="7.50487"></trkpt>
      <trkpt lat="47.26064" lon="7.50391"></trkpt>
      <trkpt lat="47.26077" lon="7.50336"></trkpt>
      <trkpt lat="47.26084" lon="7.50295"></trkpt>
      <trkpt lat="47.26044" lon="7.50121"></trkpt>
      <trkpt lat="47.26011" lon="7.50024"></trkpt>
    </trkseg>
  </trk>
</gpx>